{"type": "FeatureCollection", "features": [ {"type": "Feature", "properties": {"norad_id": 30283, "name": "FENGYUN 1C DEB", "group": "fengyun-1c-debris", "lat": -12.615404175366688, "lon": -2.7883924724731415, "alt_km": 761.3289209533423, "timestamp": "2025-12-27T22:26:48.878458+00:00", "meta": {"OBJECT_NAME": "FENGYUN 1C DEB", "OBJECT_ID": "1999-025YU", "EPOCH": "2025-12-27T12:47:57.113952", "MEAN_MOTION": 14.01980033, "ECCENTRICITY": 0.0183914, "INCLINATION": 98.8671, "RA_OF_ASC_NODE": 354.8183, "ARG_OF_PERICENTER": 2.1306, "MEAN_ANOMALY": 117.9417, "EPHEMERIS_TYPE": 0, "CLASSIFICATION_TYPE": "U", "NORAD_CAT_ID": 30283, "ELEMENT_SET_NO": 999, "REV_AT_EPOCH": 96898, "BSTAR": 0.00014161, "MEAN_MOTION_DOT": 2.07e-06, "MEAN_MOTION_DDOT": 0}, "tle": {"line1": "1 30283U 99025YU  25361.53329993  .00000207  00000+0  14161-3 0  9995", "line2": "2 30283  98.8671 354.8183 0183914   2.1306 117.9417 14.01980033968986"}}, "geometry": {"type": "Point", "coordinates": [-2.7883924724731415, -12.615404175366688]}}, {"type": "Feature", "properties": {"norad_id": 30284, "name": "FENGYUN 1C DEB", "group": "fengyun-1c-debris", "lat": -53.52784969635889, "lon": -121.6104096870174, "alt_km": 828.3934705781712, "timestamp": "2025-12-27T22:26:48.878469+00:00", "meta": {"OBJECT_NAME": "FENGYUN 1C DEB", "OBJECT_ID": "1999-025YV", "EPOCH": "2025-12-27T04:51:08.759808", "MEAN_MOTION": 14.28860326, "ECCENTRICITY": 0.0036747, "INCLINATION": 98.7191, "RA_OF_ASC_NODE": 69.6387, "ARG_OF_PERICENTER": 67.1694, "MEAN_ANOMALY": 358.2501, "EPHEMERIS_TYPE": 0, "CLASSIFICATION_TYPE": "U", "NORAD_CAT_ID": 30284, "ELEMENT_SET_NO": 999, "REV_AT_EPOCH": 97722, "BSTAR": 0.0015750627, "MEAN_MOTION_DOT": 3.96e-05, "MEAN_MOTION_DDOT": 0}, "tle": {"line1": "1 30284U 99025YV  25361.20218472  .00003960  00000+0  15751-2 0  9993", "line2": "2 30284  98.7191  69.6387 0036747  67.1694 358.2501 14.28860326977224"}}, "geometry": {"type": "Point", "coordinates": [-121.6104096870174, -53.52784969635889]}}, {"type": "Feature", "properties": {"norad_id": 30286, "name": "FENGYUN 1C DEB", "group": "fengyun-1c-debris", "lat": 33.205637497658216, "lon": -168.40953277750793, "alt_km": 821.5683753160965, "timestamp": "2025-12-27T22:26:48.878478+00:00", "meta": {"OBJECT_NAME": "FENGYUN 1C DEB", "OBJECT_ID": "1999-025YX", "EPOCH": "2025-12-27T12:08:40.114176", "MEAN_MOTION": 14.12728772, "ECCENTRICITY": 0.0064996, "INCLINATION": 98.6903, "RA_OF_ASC_NODE": 5.4287, "ARG_OF_PERICENTER": 91.3251, "MEAN_ANOMALY": 32.3634, "EPHEMERIS_TYPE": 0, "CLASSIFICATION_TYPE": "U", "NORAD_CAT_ID": 30286, "ELEMENT_SET_NO": 999, "REV_AT_EPOCH": 97667, "BSTAR": 9.6077e-05, "MEAN_MOTION_DOT": 1.4e-06, "MEAN_MOTION_DDOT": 0}, "tle": {"line1": "1 30286U 99025YX  25361.50601984  .00000140  00000+0  96077-4 0  9991", "line2": "2 30286  98.6903   5.4287 0064996  91.3251  32.3634 14.12728772976674"}}, "geometry": {"type": "Point", "coordinates": [-168.40953277750793, 33.205637497658216]}}, {"type": "Feature", "properties": {"norad_id": 30287, "name": "FENGYUN 1C DEB", "group": "fengyun-1c-debris", "lat": 65.4408505567186, "lon": -125.96313371949643, "alt_km": 1230.358359539574, "timestamp": "2025-12-27T22:26:48.878489+00:00", "meta": {"OBJECT_NAME": "FENGYUN 1C DEB", "OBJECT_ID": "1999-025YY", "EPOCH": "2025-12-27T01:10:53.592960", "MEAN_MOTION": 13.68632651, "ECCENTRICITY": 0.0412789, "INCLINATION": 98.6365, "RA_OF_ASC_NODE": 33.8153, "ARG_OF_PERICENTER": 334.2264, "MEAN_ANOMALY": 92.453, "EPHEMERIS_TYPE": 0, "CLASSIFICATION_TYPE": "U", "NORAD_CAT_ID": 30287, "ELEMENT_SET_NO": 999, "REV_AT_EPOCH": 94054, "BSTAR": 0.001105304, "MEAN_MOTION_DOT": 1.684e-05, "MEAN_MOTION_DDOT": 0}, "tle": {"line1": "1 30287U 99025YY  25361.04923140  .00001684  00000+0  11053-2 0  9995", "line2": "2 30287  98.6365  33.8153 0412789 334.2264  92.4530 13.68632651940543"}}, "geometry": {"type": "Point", "coordinates": [-125.96313371949643, 65.4408505567186]}}, {"type": "Feature", "properties": {"norad_id": 30288, "name": "FENGYUN 1C DEB", "group": "fengyun-1c-debris", "lat": -68.18499681315072, "lon": 109.28195956782889, "alt_km": 774.5474568352265, "timestamp": "2025-12-27T22:26:48.878499+00:00", "meta": {"OBJECT_NAME": "FENGYUN 1C DEB", "OBJECT_ID": "1999-025YZ", "EPOCH": "2025-12-27T04:28:34.612608", "MEAN_MOTION": 14.32720595, "ECCENTRICITY": 0.00219818, "INCLINATION": 99.3943, "RA_OF_ASC_NODE": 84.0399, "ARG_OF_PERICENTER": 278.0948, "MEAN_ANOMALY": 111.7747, "EPHEMERIS_TYPE": 0, "CLASSIFICATION_TYPE": "U", "NORAD_CAT_ID": 30288, "ELEMENT_SET_NO": 999, "REV_AT_EPOCH": 97776, "BSTAR": 0.0022018206, "MEAN_MOTION_DOT": 5.963e-05, "MEAN_MOTION_DDOT": 0}, "tle": {"line1": "1 30288U 99025YZ  25361.18651172  .00005963  00000+0  22018-2 0  9991", "line2": "2 30288  99.3943  84.0399 0021981 278.0948 111.7747 14.32720595977764"}}, "geometry": {"type": "Point", "coordinates": [109.28195956782889, -68.18499681315072]}}, {"type": "Feature", "properties": {"norad_id": 30289, "name": "FENGYUN 1C DEB", "group": "fengyun-1c-debris", "lat": 49.12807952032714, "lon": 88.2415753629354, "alt_km": 816.6133377271681, "timestamp": "2025-12-27T22:26:48.878508+00:00", "meta": {"OBJECT_NAME": "FENGYUN 1C DEB", "OBJECT_ID": "1999-025ZA", "EPOCH": "2025-12-27T05:30:45.209088", "MEAN_MOTION": 14.25958523, "ECCENTRICITY": 0.0038387, "INCLINATION": 98.9253, "RA_OF_ASC_NODE": 97.986, "ARG_OF_PERICENTER": 286.773, "MEAN_ANOMALY": 102.7613, "EPHEMERIS_TYPE": 0, "CLASSIFICATION_TYPE": "U", "NORAD_CAT_ID": 30289, "ELEMENT_SET_NO": 999, "REV_AT_EPOCH": 97288, "BSTAR": 0.0023162, "MEAN_MOTION_DOT": 5.523e-05, "MEAN_MOTION_DDOT": 0}, "tle": {"line1": "1 30289U 99025ZA  25361.22968992  .00005523  00000+0  23162-2 0  9991", "line2": "2 30289  98.9253  97.9860 0038387 286.7730 102.7613 14.25958523972889"}}, "geometry": {"type": "Point", "coordinates": [88.2415753629354, 49.12807952032714]}}, {"type": "Feature", "properties": {"norad_id": 30290, "name": "FENGYUN 1C DEB", "group": "fengyun-1c-debris", "lat": -21.92547021399157, "lon": 117.32905952018203, "alt_km": 636.2243465023721, "timestamp": "2025-12-27T22:26:48.878518+00:00", "meta": {"OBJECT_NAME": "FENGYUN 1C DEB", "OBJECT_ID": "1999-025ZB", "EPOCH": "2025-12-27T06:31:50.277216", "MEAN_MOTION": 14.75827827, "ECCENTRICITY": 0.0017543, "INCLINATION": 102.6207, "RA_OF_ASC_NODE": 111.1244, "ARG_OF_PERICENTER": 2.5805, "MEAN_ANOMALY": 53.3987, "EPHEMERIS_TYPE": 0, "CLASSIFICATION_TYPE": "U", "NORAD_CAT_ID": 30290, "ELEMENT_SET_NO": 999, "REV_AT_EPOCH": 98093, "BSTAR": 0.00561, "MEAN_MOTION_DOT": 0.00038712, "MEAN_MOTION_DDOT": 0}, "tle": {"line1": "1 30290U 99025ZB  25361.27210969  .00038712  00000+0  56100-2 0  9996", "line2": "2 30290 102.6207 111.1244 0017543   2.5805  53.3987 14.75827827980933"}}, "geometry": {"type": "Point", "coordinates": [117.32905952018203, -21.92547021399157]}}, {"type": "Feature", "properties": {"norad_id": 30291, "name": "FENGYUN 1C DEB", "group": "fengyun-1c-debris", "lat": 49.68026058126548, "lon": -119.90389034123682, "alt_km": 686.769416526593, "timestamp": "2025-12-27T22:26:48.878528+00:00", "meta": {"OBJECT_NAME": "FENGYUN 1C DEB", "OBJECT_ID": "1999-025ZC", "EPOCH": "2025-12-27T06:17:30.693120", "MEAN_MOTION": 14.55617539, "ECCENTRICITY": 0.0110197, "INCLINATION": 97.2319, "RA_OF_ASC_NODE": 248.1177, "ARG_OF_PERICENTER": 333.6522, "MEAN_ANOMALY": 150.1812, "EPHEMERIS_TYPE": 0, "CLASSIFICATION_TYPE": "U", "NORAD_CAT_ID": 30291, "ELEMENT_SET_NO": 999, "REV_AT_EPOCH": 97919, "BSTAR": 0.0034693, "MEAN_MOTION_DOT": 0.00016423, "MEAN_MOTION_DDOT": 0}, "tle": {"line1": "1 30291U 99025ZC  25361.26216080  .00016423  00000+0  34693-2 0  9994", "line2": "2 30291  97.2319 248.1177 0110197 333.6522 150.1812 14.55617539979190"}}, "geometry": {"type": "Point", "coordinates": [-119.90389034123682, 49.68026058126548]}}, {"type": "Feature", "properties": {"norad_id": 30293, "name": "FENGYUN 1C DEB", "group": "fengyun-1c-debris", "lat": -44.18488546386389, "lon": -156.56157084584976, "alt_km": 757.8683555114303, "timestamp": "2025-12-27T22:26:48.878538+00:00", "meta": {"OBJECT_NAME": "FENGYUN 1C DEB", "OBJECT_ID": "1999-025ZE", "EPOCH": "2025-12-26T18:33:00.872928", "MEAN_MOTION": 14.49020799, "ECCENTRICITY": 0.00767886, "INCLINATION": 99.2549, "RA_OF_ASC_NODE": 193.0461, "ARG_OF_PERICENTER": 73.2372, "MEAN_ANOMALY": 302.7406, "EPHEMERIS_TYPE": 0, "CLASSIFICATION_TYPE": "U", "NORAD_CAT_ID": 30293, "ELEMENT_SET_NO": 999, "REV_AT_EPOCH": 99180, "BSTAR": 0.00072284807, "MEAN_MOTION_DOT": 2.792e-05, "MEAN_MOTION_DDOT": 0}, "tle": {"line1": "1 30293U 99025ZE  25360.77292677  .00002792  00000+0  72285-3 0  9991", "line2": "2 30293  99.2549 193.0461 0076788  73.2372 302.7406 14.49020799991805"}}, "geometry": {"type": "Point", "coordinates": [-156.56157084584976, -44.18488546386389]}}, {"type": "Feature", "properties": {"norad_id": 30294, "name": "FENGYUN 1C DEB", "group": "fengyun-1c-debris", "lat": -8.412894236163694, "lon": 168.45657906689368, "alt_km": 741.7587272539758, "timestamp": "2025-12-27T22:26:48.878548+00:00", "meta": {"OBJECT_NAME": "FENGYUN 1C DEB", "OBJECT_ID": "1999-025ZF", "EPOCH": "2025-12-26T19:21:09.355392", "MEAN_MOTION": 14.34987191, "ECCENTRICITY": 0.01970827, "INCLINATION": 98.3573, "RA_OF_ASC_NODE": 348.6088, "ARG_OF_PERICENTER": 267.4966, "MEAN_ANOMALY": 214.4333, "EPHEMERIS_TYPE": 0, "CLASSIFICATION_TYPE": "U", "NORAD_CAT_ID": 30294, "ELEMENT_SET_NO": 999, "REV_AT_EPOCH": 98738, "BSTAR": 0.0003497717, "MEAN_MOTION_DOT": 1.19e-05, "MEAN_MOTION_DDOT": 0}, "tle": {"line1": "1 30294U 99025ZF  25360.80635828  .00001190  00000+0  34977-3 0  9992", "line2": "2 30294  98.3573 348.6088 0197082 267.4966 214.4333 14.34987191987381"}}, "geometry": {"type": "Point", "coordinates": [168.45657906689368, -8.412894236163694]}}]}